STARLINK-31666          
1 59572U 24076J   26068.17097980 -.00001767  00000+0 -54722-4 0  9996
2 59572  43.0036   4.9544 0001120 268.9882  91.0841 15.27577145106508
YAOGAN-43 01G           
1 60464U 24148G   26068.44348481  .00010133  00000+0  35873-3 0  9993
2 60464  35.0006  62.0013 0007382 306.3543  53.6492 15.28332833 87004
